[{"OBJECT_NAME":"STARLINK-30891","OBJECT_ID":"2023-177S","EPOCH":"2026-03-09T22:00:01.999584","MEAN_MOTION":15.26740347,"ECCENTRICITY":0.00018319,"INCLINATION":43.0007,"RA_OF_ASC_NODE":349.2677,"ARG_OF_PERICENTER":272.1296,"MEAN_ANOMALY":54.5154,"EPHEMERIS_TYPE":0,"CLASSIFICATION_TYPE":"U","NORAD_CAT_ID":58367,"ELEMENT_SET_NO":999,"REV_AT_EPOCH":557,"BSTAR":-0.00025264736,"MEAN_MOTION_DOT":-7.031e-5,"MEAN_MOTION_DDOT":0},{"OBJECT_NAME":"OBJECT J","OBJECT_ID":"2025-155J","EPOCH":"2026-03-09T22:09:22.347648","MEAN_MOTION":15.2758258,"ECCENTRICITY":0.00088188,"INCLINATION":97.4475,"RA_OF_ASC_NODE":37.3123,"ARG_OF_PERICENTER":150.071,"MEAN_ANOMALY":210.1035,"EPHEMERIS_TYPE":0,"CLASSIFICATION_TYPE":"U","NORAD_CAT_ID":64884,"ELEMENT_SET_NO":999,"REV_AT_EPOCH":6559,"BSTAR":0.00051444498,"MEAN_MOTION_DOT":0.00013827,"MEAN_MOTION_DDOT":0}]
